NORAD_CAT_ID,OBJECT_NAME,OBJECT_TYPE,EPOCH,MEAN_MOTION,ECCENTRICITY,INCLINATION,RA_OF_ASC_NODE,ARG_OF_PERICENTER,MEAN_ANOMALY,BSTAR,MEAN_MOTION_DOT,MEAN_MOTION_DDOT,TLE_LINE0,TLE_LINE1,TLE_LINE2,SEMIMAJOR_AXIS,PERIOD,APOGEE,PERIGEE,DECAYED
56490.0,STARLINK-5873,PAYLOAD,2023-12-01 14:00:01,15.01973687,0.0003351,70.0005,35.1355,277.461,134.5519,-0.072459,-0.00881445,0.0,0 STARLINK-5873,1 56490U 23064AU  23335.58334491 -.00881445  00000-0 -72459-1 0  9992,2 56490  70.0005  35.1355 0003351 277.4610 134.5519 15.01973687 32391,6938.948,95.874,563.138,558.488,0.0
56490.0,STARLINK-5873,PAYLOAD,2023-12-01 22:00:00,15.01328807,0.0003291,70.0004,34.2906,273.6075,139.8874,-0.07603,-0.00907196,0.0,0 STARLINK-5873,1 56490U 23064AU  23335.91667824 -.00907196  00000-0 -76030-1 0  9999,2 56490  70.0004  34.2906 0003291 273.6075 139.8874 15.01328807  5950,6940.935,95.915,565.084,560.516,0.0
56490.0,STARLINK-5873,PAYLOAD,2023-12-02 06:00:00,15.0071458,0.0003316,70.0006,33.4467,271.7579,142.4187,-0.081138,-0.00960159,0.0,0 STARLINK-5873,1 56490U 23064AU  23336.25001157 -.00960159  00000-0 -81138-1 0  9991,2 56490  70.0006  33.4467 0003316 271.7579 142.4187 15.00714580 32493,6942.829,95.954,566.996,562.391,0.0
56490.0,STARLINK-5873,PAYLOAD,2023-12-02 14:00:01,14.99975103,0.0003352,70.0005,32.6034,276.869,137.2514,-0.06709,-0.00781027,0.0,0 STARLINK-5873,1 56490U 23064AU  23336.58334491 -.00781027  00000-0 -67090-1 0  9993,2 56490  70.0005  32.6034 0003352 276.8690 137.2514 14.99975103  5946,6945.11,96.002,569.303,564.647,0.0
56490.0,STARLINK-5873,PAYLOAD,2023-12-02 22:00:00,14.99296272,0.0003394,70.0005,31.7611,271.8626,141.3909,-0.00068153,-8.422e-05,0.0,0 STARLINK-5873,1 56490U 23064AU  23336.91667824 -.00008422  00000-0 -68153-3 0  9993,2 56490  70.0005  31.7611 0003394 271.8626 141.3909 14.99296272 32595,6947.206,96.045,571.429,566.713,0.0
56490.0,STARLINK-5873,PAYLOAD,2023-12-03 14:00:01,14.992784,0.0003401,70.0005,30.0776,275.3113,135.2337,0.0023777,0.00029104,0.0,0 STARLINK-5873,1 56490U 23064AU  23337.58334491  .00029104  00000-0  23777-2 0  9998,2 56490  70.0005  30.0776 0003401 275.3113 135.2337 14.99278400  5947,6947.262,96.046,571.489,566.764,0.0
56490.0,STARLINK-5873,PAYLOAD,2023-12-03 22:00:00,14.99278001,0.000333,70.0007,29.2359,271.1188,138.0709,0.0025639,0.00031401,0.0,0 STARLINK-5873,1 56490U 23064AU  23337.91667824  .00031401  00000-0  25639-2 0  9996,2 56490  70.0007  29.2359 0003330 271.1188 138.0709 14.99278001 32742,6947.263,96.046,571.441,566.814,0.0
56490.0,STARLINK-5873,PAYLOAD,2023-12-04 16:00:01,14.99304561,0.0003315,70.0004,27.3419,275.1681,221.0373,-0.00082,-0.00010114,0.0,0 STARLINK-5873,1 56490U 23064AU  23338.66668981 -.00010114  00000-0 -82000-3 0  9990,2 56490  70.0004  27.3419 0003315 275.1681 221.0373 14.99304561  5943,6947.181,96.045,571.349,566.743,0.0
56490.0,STARLINK-5873,PAYLOAD,2023-12-04 22:00:00,14.99278711,0.0003254,70.0007,26.7107,270.0569,135.0853,0.0032795,0.00040242,0.0,0 STARLINK-5873,1 56490U 23064AU  23338.91667824  .00040242  00000-0  32795-2 0  9991,2 56490  70.0007  26.7107 0003254 270.0569 135.0853 14.99278711 32892,6947.261,96.046,571.386,566.865,0.0
56490.0,STARLINK-5873,PAYLOAD,2023-12-05 14:00:01,14.99297534,0.0003268,70.0008,25.0271,273.9458,128.4974,0.00020834,2.456e-05,0.0,0 STARLINK-5873,1 56490U 23064AU  23339.58334491  .00002456  00000-0  20834-3 0  9993,2 56490  70.0008  25.0271 0003268 273.9458 128.4974 14.99297534  5929,6947.202,96.045,571.338,566.797,0.0
56490.0,STARLINK-5873,PAYLOAD,2023-12-05 22:00:00,14.99269026,0.0003218,70.0008,24.1854,267.9297,133.1693,0.0037618,0.00046202,0.0,0 STARLINK-5873,1 56490U 23064AU  23339.91667824  .00046202  00000-0  37618-2 0  9993,2 56490  70.0008  24.1854 0003218 267.9297 133.1693 14.99269026  5819,6947.291,96.047,571.391,566.92,0.0
56490.0,STARLINK-5873,PAYLOAD,2023-12-06 10:37:39,14.9929717,0.0002721,70.0003,22.8589,256.8545,103.2311,-1.4505e-05,-2.71e-06,0.0,0 STARLINK-5873,1 56490U 23064AU  23340.44281746 -.00000271  00000-0 -14505-4 0  9998,2 56490  70.0003  22.8589 0002721 256.8545 103.2311 14.99297170 33126,6947.204,96.045,570.959,567.178,0.0
56490.0,STARLINK-5873,PAYLOAD,2023-12-06 12:13:43,14.99297053,0.0002701,70.0003,22.6905,256.6101,103.4757,-1.7465e-05,-3.07e-06,0.0,0 STARLINK-5873,1 56490U 23064AU  23340.50953455 -.00000307  00000-0 -17465-4 0  9996,2 56490  70.0003  22.6905 0002701 256.6101 103.4757 14.99297053 32776,6947.204,96.045,570.945,567.193,0.0
56490.0,STARLINK-5873,PAYLOAD,2023-12-07 12:14:48,14.99299538,0.0002889,69.9997,20.163,261.8619,98.2213,-3.5863e-06,-1.38e-06,0.0,0 STARLINK-5873,1 56490U 23064AU  23341.51028407 -.00000138  00000-0 -35863-5 0  9993,2 56490  69.9997  20.1630 0002889 261.8619  98.2213 14.99299538 33287,6947.196,96.045,571.068,567.054,0.0
56490.0,STARLINK-5873,PAYLOAD,2023-12-08 12:15:53,14.99306489,0.0003016,69.9988,17.6343,265.6836,94.3979,-0.00013172,-1.705e-05,0.0,0 STARLINK-5873,1 56490U 23064AU  23342.51103483 -.00001705  00000-0 -13172-3 0  9990,2 56490  69.9988  17.6343 0003016 265.6836  94.3979 14.99306489 33432,6947.175,96.044,571.135,566.945,0.0
56490.0,STARLINK-5873,PAYLOAD,2023-12-09 12:16:58,14.99303559,0.0003061,69.9987,15.1066,266.5743,93.5067,3.5032e-05,3.35e-06,0.0,0 STARLINK-5873,1 56490U 23064AU  23343.51178428  .00000335  00000-0  35032-4 0  9998,2 56490  69.9987  15.1066 0003061 266.5743  93.5067 14.99303559 33224,6947.184,96.045,571.175,566.922,0.0
56490.0,STARLINK-5873,PAYLOAD,2023-12-10 12:18:03,14.99300204,0.0002993,69.9988,12.5795,264.5823,95.4995,2.5244e-05,2.15e-06,0.0,0 STARLINK-5873,1 56490U 23064AU  23344.51253814  .00000215  00000-0  25244-4 0  9993,2 56490  69.9988  12.5795 0002993 264.5823  95.4995 14.99300204 33736,6947.194,96.045,571.139,566.98,0.0
56490.0,STARLINK-5873,PAYLOAD,2023-12-11 12:19:08,14.99301564,0.0002902,69.9988,10.0521,266.0126,94.0702,-9.2086e-06,-2.07e-06,0.0,0 STARLINK-5873,1 56490U 23064AU  23345.51328950 -.00000207  00000-0 -92086-5 0  9990,2 56490  69.9988  10.0521 0002902 266.0126  94.0702 14.99301564 33527,6947.19,96.045,571.071,567.039,0.0
56490.0,STARLINK-5873,PAYLOAD,2023-12-12 10:44:08,14.993001,0.00029,69.9987,7.6936,263.8724,96.2105,-3.3405e-06,-1.35e-06,0.0,0 STARLINK-5873,1 56490U 23064AU  23346.44732465 -.00000135  00000-0 -33405-5 0  9993,2 56490  69.9987   7.6936 0002900 263.8724  96.2105 14.99300100 33666,6947.195,96.045,571.074,567.045,0.0
56490.0,STARLINK-5873,PAYLOAD,2023-12-13 02:44:52,14.99300057,0.0002881,69.9987,6.0086,264.2934,95.7897,-2.1174e-06,-1.2e-06,0.0,0 STARLINK-5873,1 56490U 23064AU  23347.11449253 -.00000120  00000-0 -21174-5 0  9992,2 56490  69.9987   6.0086 0002881 264.2934  95.7897 14.99300057 34126,6947.195,96.045,571.061,567.058,0.0
56490.0,STARLINK-5873,PAYLOAD,2023-12-13 10:45:13,14.9929931,0.0002894,69.9987,5.1662,263.7683,96.3147,-1.0171e-05,-2.18e-06,0.0,0 STARLINK-5873,1 56490U 23064AU  23347.44807722 -.00000218  00000-0 -10171-4 0  9999,2 56490  69.9987   5.1662 0002894 263.7683  96.3147 14.99299310 33814,6947.197,96.045,571.073,567.051,0.0
56490.0,STARLINK-5873,PAYLOAD,2023-12-14 04:22:01,14.99296978,0.0002859,69.9988,3.3132,262.1127,97.9708,-2.0216e-05,-3.41e-06,0.0,0 STARLINK-5873,1 56490U 23064AU  23348.18196442 -.00000341  00000-0 -20216-4 0  9999,2 56490  69.9988   3.3132 0002859 262.1127  97.9708 14.99296978 34283,6947.204,96.045,571.055,567.083,0.0
56490.0,STARLINK-5873,PAYLOAD,2023-12-14 10:46:19,14.99297641,0.0002771,69.9991,2.6394,260.1729,99.9118,-2.2921e-05,-3.74e-06,0.0,0 STARLINK-5873,1 56490U 23064AU  23348.44883176 -.00000374  00000-0 -22921-4 0  9996,2 56490  69.9991   2.6394 0002771 260.1729  99.9118 14.99297641 33967,6947.202,96.045,570.992,567.142,0.0
56490.0,STARLINK-5873,PAYLOAD,2023-12-15 04:23:06,14.99301864,0.0002877,69.9989,0.7855,262.7716,97.3117,3.5822e-05,3.44e-06,0.0,0 STARLINK-5873,1 56490U 23064AU  23349.18271207  .00000344  00000-0  35822-4 0  9993,2 56490  69.9989   0.7855 0002877 262.7716  97.3117 14.99301864 34433,6947.189,96.045,571.053,567.055,0.0
56490.0,STARLINK-5873,PAYLOAD,2023-12-15 10:47:26,14.99268548,0.0002471,69.999,0.1118,268.8409,91.2467,-0.00032308,-4.041e-05,0.0,0 STARLINK-5873,1 56490U 23064AU  23349.44961049 -.00004041  00000-0 -32308-3 0  9997,2 56490  69.9990   0.1118 0002471 268.8409  91.2467 14.99268548 34473,6947.292,96.047,570.874,567.44,0.0
56490.0,STARLINK-5873,PAYLOAD,2023-12-15 18:48:07,14.99065903,0.0003414,69.9992,359.2696,348.0101,12.0976,-0.0023266,-0.00028276,0.0,0 STARLINK-5873,1 56490U 23064AU  23349.78341673 -.00028276  00000-0 -23266-2 0  9997,2 56490  69.9992 359.2696 0003414 348.0101  12.0976 14.99065903 34164,6947.918,96.06,572.155,567.411,0.0
56490.0,STARLINK-5873,PAYLOAD,2023-12-16 02:48:57,14.98761772,0.0002688,69.9987,358.4286,261.3472,98.7382,-0.0053612,-0.00064192,0.0,0 STARLINK-5873,1 56490U 23064AU  23350.11733515 -.00064192  00000-0 -53612-2 0  9991,2 56490  69.9987 358.4286 0002688 261.3472  98.7382 14.98761772 34577,6948.858,96.079,572.591,568.855,0.0
56490.0,STARLINK-5873,PAYLOAD,2023-12-16 10:49:30,14.98728877,0.000293,69.9991,357.5886,264.4197,95.6628,-0.0052344,-0.00062638,0.0,0 STARLINK-5873,1 56490U 23064AU  23350.45104782 -.00062638  00000-0 -52344-2 0  9990,2 56490  69.9991 357.5886 0002930 264.4197  95.6628 14.98728877 34260,6948.96,96.081,572.861,568.789,0.0
56490.0,STARLINK-5873,PAYLOAD,2023-12-16 22:02:17,14.98683869,0.0003101,69.9987,356.4108,257.979,102.1022,-0.0050492,-0.00060374,0.0,0 STARLINK-5873,1 56490U 23064AU  23350.91826264 -.00060374  00000-0 -50492-2 0  9994,2 56490  69.9987 356.4108 0003101 257.9790 102.1022 14.98683869 34338,6949.099,96.084,573.119,568.809,0.0
56490.0,STARLINK-5873,PAYLOAD,2023-12-17 02:50:38,14.98667844,0.0003106,69.9986,355.9058,260.1865,99.8943,-0.0049458,-0.00059126,0.0,0 STARLINK-5873,1 56490U 23064AU  23351.11850407 -.00059126  00000-0 -49458-2 0  9996,2 56490  69.9986 355.9058 0003106 260.1865  99.8943 14.98667844 34721,6949.148,96.085,573.172,568.855,0.0
